ID,ZIP,CITY,STATE,LAT,LONG
0,All,"All",MD,38.5,-77.0
8543,20588,"DHS",MD,38.74,-76.85
8551,20601,"WALDORF",MD,38.64,-76.9
8552,20602,"WALDORF",MD,38.64,-76.9
8553,20603,"WALDORF",MD,38.64,-76.9
8554,20604,"WALDORF",MD,38.64,-76.9
8555,20606,"ABELL",MD,38.25,-76.74
8556,20607,"ACCOKEEK",MD,38.67,-77.01
8557,20608,"AQUASCO",MD,38.58,-76.7
8558,20609,"AVENUE",MD,38.27,-76.74
8559,20610,"BARSTOW",MD,38.52,-76.6
8560,20611,"BEL ALTON",MD,38.46,-76.98
8561,20612,"BENEDICT",MD,38.5,-76.68
8562,20613,"BRANDYWINE",MD,38.69,-76.85
8563,20615,"BROOMES ISLAND",MD,38.41,-76.54
8564,20616,"BRYANS ROAD",MD,38.63,-77.07
8565,20617,"BRYANTOWN",MD,38.55,-76.84
8566,20618,"BUSHWOOD",MD,38.28,-76.78
8567,20619,"CALIFORNIA",MD,38.29,-76.49
8568,20620,"CALLAWAY",MD,38.23,-76.51
8569,20621,"CHAPTICO",MD,38.36,-76.78
8570,20622,"CHARLOTTE HALL",MD,38.47,-76.78
8571,20623,"CHELTENHAM",MD,38.73,-76.82
8572,20624,"CLEMENTS",MD,38.32,-76.72
8573,20625,"COBB ISLAND",MD,38.33,-76.91
8574,20626,"COLTONS POINT",MD,38.23,-76.76
8575,20627,"COMPTON",MD,38.3,-76.63
8576,20628,"DAMERON",MD,38.15,-76.36
8577,20629,"DOWELL",MD,38.35,-76.44
8578,20630,"DRAYDEN",MD,38.17,-76.47
8579,20632,"FAULKNER",MD,38.43,-76.97
8580,20634,"GREAT MILLS",MD,38.25,-76.49
8581,20635,"HELEN",MD,38.41,-76.73
8582,20636,"HOLLYWOOD",MD,38.34,-76.57
8583,20637,"HUGHESVILLE",MD,38.53,-76.78
8584,20639,"HUNTINGTOWN",MD,38.61,-76.61
8585,20640,"INDIAN HEAD",MD,38.59,-77.15
8586,20643,"IRONSIDES",MD,38.49,-77.16
8587,20645,"ISSUE",MD,38.3,-76.86
8588,20646,"LA PLATA",MD,38.53,-76.97
8589,20650,"LEONARDTOWN",MD,38.29,-76.64
8590,20653,"LEXINGTON PARK",MD,38.26,-76.44
8591,20656,"LOVEVILLE",MD,38.35,-76.67
8592,20657,"LUSBY",MD,38.41,-76.45
8593,20658,"MARBURY",MD,38.55,-77.15
8594,20659,"MECHANICSVILLE",MD,38.43,-76.73
8595,20660,"MORGANZA",MD,38.37,-76.69
8596,20661,"MOUNT VICTORIA",MD,38.33,-76.91
8597,20662,"NANJEMOY",MD,38.45,-77.21
8598,20664,"NEWBURG",MD,38.34,-76.92
8599,20667,"PARK HALL",MD,38.22,-76.44
8600,20670,"PATUXENT RIVER",MD,38.28,-76.42
8601,20674,"PINEY POINT",MD,38.14,-76.5
8602,20675,"POMFRET",MD,38.57,-77.01
8603,20676,"PORT REPUBLIC",MD,38.49,-76.54
8604,20677,"PORT TOBACCO",MD,38.49,-77.04
8605,20678,"PRINCE FREDERICK",MD,38.54,-76.58
8606,20680,"RIDGE",MD,38.11,-76.37
8607,20682,"ROCK POINT",MD,38.34,-76.92
8608,20684,"SAINT INIGOES",MD,38.15,-76.41
8609,20685,"SAINT LEONARD",MD,38.47,-76.5
8610,20686,"SAINT MARYS CITY",MD,38.18,-76.42
8611,20687,"SCOTLAND",MD,38.07,-76.34
8612,20688,"SOLOMONS",MD,38.33,-76.45
8613,20689,"SUNDERLAND",MD,38.64,-76.57
8614,20690,"TALL TIMBERS",MD,38.15,-76.53
8615,20692,"VALLEY LEE",MD,38.18,-76.5
8616,20693,"WELCOME",MD,38.45,-77.08
8617,20695,"WHITE PLAINS",MD,38.59,-76.97
8618,20697,"SOUTHERN MD FACILITY",MD,39.03,-76.9
8619,20701,"ANNAPOLIS JUNCTION",MD,39.12,-76.77
8620,20703,"LANHAM",MD,38.96,-76.85
8621,20704,"BELTSVILLE",MD,39.03,-76.92
8622,20705,"BELTSVILLE",MD,39.03,-76.92
8623,20706,"LANHAM",MD,38.96,-76.85
8624,20707,"LAUREL",MD,39.09,-76.85
8625,20708,"LAUREL",MD,39.09,-76.85
8626,20709,"LAUREL",MD,39.09,-76.85
8627,20710,"BLADENSBURG",MD,38.94,-76.92
8628,20711,"LOTHIAN",MD,38.8,-76.65
8629,20712,"MOUNT RAINIER",MD,38.94,-76.96
8630,20714,"NORTH BEACH",MD,38.7,-76.53
8631,20715,"BOWIE",MD,38.95,-76.73
8632,20716,"BOWIE",MD,38.95,-76.73
8633,20717,"BOWIE",MD,38.95,-76.73
8634,20718,"BOWIE",MD,38.95,-76.73
8635,20719,"BOWIE",MD,38.95,-76.73
8636,20720,"BOWIE",MD,38.95,-76.73
8637,20721,"BOWIE",MD,38.95,-76.73
8638,20722,"BRENTWOOD",MD,38.94,-76.95
8639,20723,"LAUREL",MD,39.09,-76.85
8640,20724,"LAUREL",MD,39.09,-76.85
8641,20725,"LAUREL",MD,39.09,-76.85
8642,20726,"LAUREL",MD,39.09,-76.85
8643,20731,"CAPITOL HEIGHTS",MD,38.87,-76.9
8644,20732,"CHESAPEAKE BEACH",MD,38.68,-76.53
8645,20733,"CHURCHTON",MD,38.8,-76.58
8646,20735,"CLINTON",MD,38.76,-76.89
8647,20736,"OWINGS",MD,38.69,-76.62
8648,20737,"RIVERDALE",MD,38.96,-76.92
8649,20738,"RIVERDALE",MD,38.96,-76.92
8650,20740,"COLLEGE PARK",MD,38.99,-76.93
8651,20741,"COLLEGE PARK",MD,38.99,-76.93
8652,20742,"COLLEGE PARK",MD,38.99,-76.93
8653,20743,"CAPITOL HEIGHTS",MD,38.87,-76.9
8654,20744,"FORT WASHINGTON",MD,38.73,0
8655,20745,"OXON HILL",MD,38.8,-76.99
8656,20746,"SUITLAND",MD,38.83,-76.92
8657,20747,"DISTRICT HEIGHTS",MD,38.85,-76.88
8658,20748,"TEMPLE HILLS",MD,38.8,-76.94
8659,20749,"FORT WASHINGTON",MD,38.73,0
8660,20750,"OXON HILL",MD,38.8,-76.99
8661,20751,"DEALE",MD,38.79,-76.54
8662,20752,"SUITLAND",MD,38.83,-76.92
8663,20753,"DISTRICT HEIGHTS",MD,38.85,-76.88
8664,20754,"DUNKIRK",MD,38.72,-76.66
8665,20755,"FORT GEORGE G MEADE",MD,39.08,-76.76
8666,20757,"TEMPLE HILLS",MD,38.8,-76.94
8667,20758,"FRIENDSHIP",MD,39.3,-77.19
8668,20759,"FULTON",MD,39.15,-76.92
8669,20762,"ANDREWS AIR FORCE BASE",MD,38.8,-76.87
8670,20763,"SAVAGE",MD,39.13,-76.81
8671,20764,"SHADY SIDE",MD,38.83,-76.52
8672,20765,"GALESVILLE",MD,38.84,-76.54
8673,20768,"GREENBELT",MD,38.99,-76.88
8674,20769,"GLENN DALE",MD,38.98,-76.8
8675,20770,"GREENBELT",MD,38.99,-76.88
8676,20771,"GREENBELT",MD,38.99,-76.88
8677,20772,"UPPER MARLBORO",MD,38.81,-76.75
8678,20773,"UPPER MARLBORO",MD,38.81,-76.75
8679,20774,"UPPER MARLBORO",MD,38.81,-76.75
8680,20775,"UPPER MARLBORO",MD,38.81,-76.75
8681,20776,"HARWOOD",MD,38.86,-76.6
8682,20777,"HIGHLAND",MD,39.17,-76.95
8683,20778,"WEST RIVER",MD,38.82,-76.55
8684,20779,"TRACYS LANDING",MD,38.76,-76.58
8685,20781,"HYATTSVILLE",MD,38.95,-76.95
8686,20782,"HYATTSVILLE",MD,38.95,-76.95
8687,20783,"HYATTSVILLE",MD,38.95,-76.95
8688,20784,"HYATTSVILLE",MD,38.95,-76.95
8689,20785,"HYATTSVILLE",MD,38.95,-76.95
8690,20787,"HYATTSVILLE",MD,38.95,-76.95
8691,20788,"HYATTSVILLE",MD,38.95,-76.95
8692,20790,"CAPITOL HEIGHTS",MD,38.87,-76.9
8693,20791,"CAPITOL HEIGHTS",MD,38.87,-76.9
8694,20792,"UPPER MARLBORO",MD,38.82,-76.75
8695,20794,"JESSUP",MD,39.14,-76.77
8696,20797,"SOUTHERN MD FACILITY",MD,39.03,-76.9
8697,20799,"CAPITOL HEIGHTS",MD,38.87,-76.9
8698,20810,"BETHESDA",MD,38.97,-77.1
8699,20811,"BETHESDA",MD,38.97,-77.1
8700,20812,"GLEN ECHO",MD,38.96,-77.14
8701,20813,"BETHESDA",MD,38.98,-77.12
8702,20814,"BETHESDA",MD,38.98,-77.12
8703,20815,"CHEVY CHASE",MD,38.98,-77.08
8704,20816,"BETHESDA",MD,38.98,-77.12
8705,20817,"BETHESDA",MD,38.98,-77.12
8706,20818,"CABIN JOHN",MD,38.97,-77.16
8707,20824,"BETHESDA",MD,38.98,-77.12
8708,20825,"CHEVY CHASE",MD,38.98,-77.08
8709,20827,"BETHESDA",MD,38.98,-77.12
8710,20830,"OLNEY",MD,39.14,-77.08
8711,20832,"OLNEY",MD,39.14,-77.08
8712,20833,"BROOKEVILLE",MD,39.17,-77.05
8713,20837,"POOLESVILLE",MD,39.14,-77.41
8714,20838,"BARNESVILLE",MD,39.21,-77.38
8715,20839,"BEALLSVILLE",MD,39.17,-77.41
8716,20841,"BOYDS",MD,39.18,-77.31
8717,20842,"DICKERSON",MD,39.22,-77.42
8718,20847,"ROCKVILLE",MD,39.08,-77.15
8719,20848,"ROCKVILLE",MD,39.08,-77.15
8720,20849,"ROCKVILLE",MD,39.08,-77.15
8721,20850,"ROCKVILLE",MD,39.08,-77.15
8722,20851,"ROCKVILLE",MD,39.08,-77.15
8723,20852,"ROCKVILLE",MD,39.08,-77.15
8724,20853,"ROCKVILLE",MD,39.08,-77.15
8725,20854,"POTOMAC",MD,39.02,-77.19
8726,20855,"DERWOOD",MD,39.13,-77.13
8727,20857,"ROCKVILLE",MD,39.08,-77.15
8728,20859,"POTOMAC",MD,39.02,-77.19
8729,20860,"SANDY SPRING",MD,39.14,-77.02
8730,20861,"ASHTON",MD,39.15,-76.98
8731,20862,"BRINKLOW",MD,39.18,-77.01
8732,20866,"BURTONSVILLE",MD,39.11,-76.93
8733,20868,"SPENCERVILLE",MD,39.12,-76.96
8734,20871,"CLARKSBURG",MD,39.23,-77.27
8735,20872,"DAMASCUS",MD,39.27,-77.2
8736,20874,"GERMANTOWN",MD,39.17,-77.26
8737,20875,"GERMANTOWN",MD,39.17,-77.26
8738,20876,"GERMANTOWN",MD,39.17,-77.26
8739,20877,"GAITHERSBURG",MD,39.14,-77.21
8740,20878,"GAITHERSBURG",MD,39.14,-77.21
8741,20879,"GAITHERSBURG",MD,39.14,-77.21
8742,20880,"WASHINGTON GROVE",MD,39.14,-77.17
8743,20882,"GAITHERSBURG",MD,39.14,-77.21
8744,20883,"GAITHERSBURG",MD,39.17,-77.19
8745,20884,"GAITHERSBURG",MD,39.14,-77.21
8746,20885,"GAITHERSBURG",MD,39.14,-77.21
8747,20886,"MONTGOMERY VILLAGE",MD,39.18,-77.19
8748,20889,"BETHESDA",MD,38.98,-77.12
8749,20891,"KENSINGTON",MD,39.02,-77.07
8750,20892,"BETHESDA",MD,38.98,-77.12
8751,20894,"BETHESDA",MD,38.98,-77.12
8752,20895,"KENSINGTON",MD,39.02,-77.07
8753,20896,"GARRETT PARK",MD,39.03,-77.09
8754,20897,"SUBURB MARYLAND FAC",MD,39.08,-77.05
8755,20898,"GAITHERSBURG",MD,39.14,-77.21
8756,20899,"GAITHERSBURG",MD,39.14,-77.21
8757,20901,"SILVER SPRING",MD,39.01,-77.02
8758,20902,"SILVER SPRING",MD,39.01,-77.02
8759,20903,"SILVER SPRING",MD,39.01,-77.02
8760,20904,"SILVER SPRING",MD,39.01,-77.02
8761,20905,"SILVER SPRING",MD,39.01,-77.02
8762,20906,"SILVER SPRING",MD,39.01,-77.02
8763,20907,"SILVER SPRING",MD,39.01,-77.02
8764,20908,"SILVER SPRING",MD,39.01,-77.02
8765,20910,"SILVER SPRING",MD,39.01,-77.02
8766,20911,"SILVER SPRING",MD,39.01,-77.02
8767,20912,"TAKOMA PARK",MD,38.98,0
8768,20913,"TAKOMA PARK",MD,38.98,0
8769,20914,"SILVER SPRING",MD,39.01,-77.02
8770,20915,"SILVER SPRING",MD,39.01,-77.02
8771,20916,"SILVER SPRING",MD,39.01,-77.02
8772,20918,"SILVER SPRING",MD,39.01,-77.02
8773,20993,"SILVER SPRING",MD,39.03,-76.98
8774,20997,"SILVER SPRING",MD,39.01,-77.02
8775,21001,"ABERDEEN",MD,39.51,-76.17
8776,21005,"ABERDEEN PROVING GROUND",MD,39.47,-76.13
8777,21009,"ABINGDON",MD,39.46,-76.27
8778,21010,"GUNPOWDER",MD,39.41,-76.38
8779,21012,"ARNOLD",MD,39.04,-76.49
8780,21013,"BALDWIN",MD,39.51,-76.49
8781,21014,"BEL AIR",MD,39.53,-76.34
8782,21015,"BEL AIR",MD,39.53,-76.34
8783,21017,"BELCAMP",MD,39.46,-76.23
8784,21018,"BENSON",MD,39.51,-76.18
8785,21020,"BORING",MD,39.57,-76.8
8786,21022,"BROOKLANDVILLE",MD,39.42,-76.67
8787,21023,"BUTLER",MD,39.55,-76.68
8788,21027,"CHASE",MD,39.36,-76.37
8789,21028,"CHURCHVILLE",MD,39.56,-76.24
8790,21029,"CLARKSVILLE",MD,39.2,-76.94
8791,21030,"COCKEYSVILLE",MD,39.47,-76.63
8792,21031,"HUNT VALLEY",MD,39.49,-76.65
8793,21032,"CROWNSVILLE",MD,39.01,-76.59
8794,21034,"DARLINGTON",MD,39.63,-76.2
8795,21035,"DAVIDSONVILLE",MD,38.93,-76.63
8796,21036,"DAYTON",MD,39.23,-76.98
8797,21037,"EDGEWATER",MD,38.9,-76.54
8798,21040,"EDGEWOOD",MD,39.42,-76.29
8799,21041,"ELLICOTT CITY",MD,39.27,-76.83
8800,21042,"ELLICOTT CITY",MD,39.27,-76.83
8801,21043,"ELLICOTT CITY",MD,39.27,-76.83
8802,21044,"COLUMBIA",MD,39.2,-76.85
8803,21045,"COLUMBIA",MD,39.2,-76.85
8804,21046,"COLUMBIA",MD,39.2,-76.85
8805,21047,"FALLSTON",MD,39.52,-76.42
8806,21048,"FINKSBURG",MD,39.49,-76.88
8807,21050,"FOREST HILL",MD,39.58,-76.39
8808,21051,"FORK",MD,39.47,-76.45
8809,21052,"FORT HOWARD",MD,39.2,-76.44
8810,21053,"FREELAND",MD,39.69,-76.72
8811,21054,"GAMBRILLS",MD,39.05,-76.66
8812,21056,"GIBSON ISLAND",MD,39.07,-76.42
8813,21057,"GLEN ARM",MD,39.44,-76.5
8814,21060,"GLEN BURNIE",MD,39.16,-76.6
8815,21061,"GLEN BURNIE",MD,39.16,-76.6
8816,21062,"GLEN BURNIE",MD,39.16,-76.6
8817,21065,"HUNT VALLEY",MD,39.49,-76.65
8818,21071,"GLYNDON",MD,39.47,-76.81
8819,21074,"HAMPSTEAD",MD,39.61,-76.85
8820,21075,"ELKRIDGE",MD,39.2,-76.75
8821,21076,"HANOVER",MD,39.16,-76.72
8822,21077,"HARMANS",MD,39.16,-76.72
8823,21078,"HAVRE DE GRACE",MD,39.54,-76.09
8824,21082,"HYDES",MD,39.48,-76.47
8825,21084,"JARRETTSVILLE",MD,39.6,-76.47
8826,21085,"JOPPA",MD,39.43,-76.35
8827,21087,"KINGSVILLE",MD,39.44,-76.41
8828,21088,"LINEBORO",MD,39.71,-76.84
8829,21090,"LINTHICUM HEIGHTS",MD,39.2,-76.66
8830,21092,"LONG GREEN",MD,39.47,-76.52
8831,21093,"LUTHERVILLE TIMONIUM",MD,39.43,-76.64
8832,21094,"LUTHERVILLE TIMONIUM",MD,39.43,-76.64
8833,21098,"HANOVER",MD,39.19,-76.72
8834,21102,"MANCHESTER",MD,39.65,-76.89
8835,21104,"MARRIOTTSVILLE",MD,39.35,-76.89
8836,21105,"MARYLAND LINE",MD,39.69,-76.71
8837,21106,"MAYO",MD,38.89,-76.5
8838,21108,"MILLERSVILLE",MD,39.05,-76.64
8839,21111,"MONKTON",MD,39.57,-76.58
8840,21113,"ODENTON",MD,39.06,-76.69
8841,21114,"CROFTON",MD,39.01,-76.68
8842,21117,"OWINGS MILLS",MD,39.41,-76.79
8843,21120,"PARKTON",MD,39.65,-76.67
8844,21122,"PASADENA",MD,39.11,-76.55
8845,21123,"PASADENA",MD,39.11,-76.55
8846,21128,"PERRY HALL",MD,39.4,-76.47
8847,21130,"PERRYMAN",MD,39.46,-76.2
8848,21131,"PHOENIX",MD,39.5,-76.56
8849,21132,"PYLESVILLE",MD,39.68,-76.37
8850,21133,"RANDALLSTOWN",MD,39.37,-76.8
8851,21136,"REISTERSTOWN",MD,39.45,-76.81
8852,21139,"RIDERWOOD",MD,39.4,-76.6
8853,21140,"RIVA",MD,38.94,-76.58
8854,21144,"SEVERN",MD,39.13,-76.69
8855,21146,"SEVERNA PARK",MD,39.08,-76.57
8856,21150,"SIMPSONVILLE",MD,39.18,-76.88
8857,21152,"SPARKS GLENCOE",MD,39.54,-76.68
8858,21153,"STEVENSON",MD,39.42,-76.7
8859,21154,"STREET",MD,39.65,-76.34
8860,21155,"UPPERCO",MD,39.57,-76.8
8861,21156,"UPPER FALLS",MD,39.43,-76.4
8862,21157,"WESTMINSTER",MD,39.57,0
8863,21158,"WESTMINSTER",MD,39.57,0
8864,21160,"WHITEFORD",MD,39.7,-76.34
8865,21161,"WHITE HALL",MD,39.65,-76.56
8866,21162,"WHITE MARSH",MD,39.38,-76.45
8867,21163,"WOODSTOCK",MD,39.32,-76.87
8868,21201,"BALTIMORE",MD,39.3,-76.61
8869,21202,"BALTIMORE",MD,39.3,-76.61
8870,21203,"BALTIMORE",MD,39.3,-76.61
8871,21204,"TOWSON",MD,39.39,-76.62
8872,21205,"BALTIMORE",MD,39.3,-76.61
8873,21206,"BALTIMORE",MD,39.3,-76.61
8874,21207,"GWYNN OAK",MD,39.32,-76.72
8875,21208,"PIKESVILLE",MD,39.39,-76.7
8876,21209,"BALTIMORE",MD,39.3,-76.61
8877,21210,"BALTIMORE",MD,39.3,-76.61
8878,21211,"BALTIMORE",MD,39.3,-76.61
8879,21212,"BALTIMORE",MD,39.3,-76.61
8880,21213,"BALTIMORE",MD,39.3,-76.61
8881,21214,"BALTIMORE",MD,39.3,-76.61
8882,21215,"BALTIMORE",MD,39.3,-76.61
8883,21216,"BALTIMORE",MD,39.3,-76.61
8884,21217,"BALTIMORE",MD,39.3,-76.61
8885,21218,"BALTIMORE",MD,39.3,-76.61
8886,21219,"SPARROWS POINT",MD,39.22,-76.43
8887,21220,"MIDDLE RIVER",MD,39.33,-76.43
8888,21221,"ESSEX",MD,39.3,-76.44
8889,21222,"DUNDALK",MD,39.26,-76.49
8890,21223,"BALTIMORE",MD,39.3,-76.61
8891,21224,"BALTIMORE",MD,39.3,-76.61
8892,21225,"BROOKLYN",MD,39.22,-76.61
8893,21226,"CURTIS BAY",MD,39.21,-76.55
8894,21227,"HALETHORPE",MD,39.21,-76.72
8895,21228,"CATONSVILLE",MD,39.26,-76.74
8896,21229,"BALTIMORE",MD,39.3,-76.61
8897,21230,"BALTIMORE",MD,39.3,-76.61
8898,21231,"BALTIMORE",MD,39.3,-76.61
8899,21233,"BALTIMORE",MD,39.3,-76.61
8900,21234,"PARKVILLE",MD,39.38,-76.55
8901,21235,"BALTIMORE",MD,39.3,-76.61
8902,21236,"NOTTINGHAM",MD,39.38,-76.48
8903,21237,"ROSEDALE",MD,39.32,-76.5
8904,21239,"BALTIMORE",MD,39.3,-76.61
8905,21240,"BALTIMORE",MD,39.3,-76.61
8906,21241,"BALTIMORE",MD,39.3,-76.61
8907,21244,"WINDSOR MILL",MD,39.33,-76.78
8908,21250,"BALTIMORE",MD,39.3,-76.61
8909,21251,"BALTIMORE",MD,39.3,-76.61
8910,21252,"TOWSON",MD,39.3,-76.61
8911,21260,"BALTIMORE",MD,39.35,-76.7
8912,21261,"BALTIMORE",MD,39.3,-76.45
8913,21263,"BALTIMORE",MD,39.3,-76.61
8914,21264,"BALTIMORE",MD,39.3,-76.61
8915,21265,"BALTIMORE",MD,39.29,-76.6
8916,21268,"BALTIMORE",MD,39.21,-76.72
8917,21270,"BALTIMORE",MD,39.3,-76.61
8918,21273,"BALTIMORE",MD,39.3,-76.61
8919,21274,"BALTIMORE",MD,39.29,-76.6
8920,21275,"BALTIMORE",MD,39.3,-76.61
8921,21278,"BALTIMORE",MD,39.3,-76.61
8922,21279,"BALTIMORE",MD,39.3,-76.61
8923,21280,"BALTIMORE",MD,39.3,-76.61
8924,21281,"BALTIMORE",MD,39.3,-76.61
8925,21282,"BALTIMORE",MD,39.3,-76.61
8926,21283,"BALTIMORE",MD,39.29,-76.61
8927,21284,"BALTIMORE",MD,39.3,-76.61
8928,21285,"BALTIMORE",MD,39.3,-76.61
8929,21286,"TOWSON",MD,39.39,-76.62
8930,21287,"BALTIMORE",MD,39.3,-76.61
8931,21288,"BALTIMORE",MD,39.3,-76.61
8932,21289,"BALTIMORE",MD,39.3,-76.61
8933,21290,"BALTIMORE",MD,39.3,-76.61
8934,21297,"BALTIMORE",MD,39.3,-76.61
8935,21298,"BALTIMORE",MD,39.3,-76.61
8936,21401,"ANNAPOLIS",MD,38.97,-76.5
8937,21402,"ANNAPOLIS",MD,38.97,-76.5
8938,21403,"ANNAPOLIS",MD,38.97,-76.5
8939,21404,"ANNAPOLIS",MD,38.97,-76.5
8940,21405,"ANNAPOLIS",MD,38.97,-76.5
8941,21409,"ANNAPOLIS",MD,39.02,-76.45
8942,21411,"ANNAPOLIS",MD,38.97,-76.5
8943,21412,"ANNAPOLIS",MD,38.97,-76.5
8944,21501,"CUMBERLAND",MD,39.65,-78.76
8945,21502,"CUMBERLAND",MD,39.65,-78.76
8946,21503,"CUMBERLAND",MD,39.65,-78.76
8947,21504,"CUMBERLAND",MD,39.65,-78.76
8948,21505,"CUMBERLAND",MD,39.65,-78.76
8949,21520,"ACCIDENT",MD,39.62,-79.32
8950,21521,"BARTON",MD,39.53,-79.01
8951,21522,"BITTINGER",MD,39.58,-79.2
8952,21523,"BLOOMINGTON",MD,39.5,-79.11
8953,21524,"CORRIGANVILLE",MD,39.69,-78.79
8954,21528,"ECKHART MINES",MD,39.64,-78.87
8955,21529,"ELLERSLIE",MD,39.72,-78.77
8956,21530,"FLINTSTONE",MD,39.7,-78.56
8957,21531,"FRIENDSVILLE",MD,39.66,-79.4
8958,21532,"FROSTBURG",MD,39.66,-78.92
8959,21536,"GRANTSVILLE",MD,39.69,-79.15
8960,21538,"KITZMILLER",MD,39.38,-79.18
8961,21539,"LONACONING",MD,39.56,-78.97
8962,21540,"LUKE",MD,39.47,-79.06
8963,21541,"MC HENRY",MD,39.55,-79.35
8964,21542,"MIDLAND",MD,39.58,-78.94
8965,21543,"MIDLOTHIAN",MD,39.66,-78.94
8966,21545,"MOUNT SAVAGE",MD,39.69,-78.88
8967,21550,"OAKLAND",MD,39.41,-79.41
8968,21555,"OLDTOWN",MD,39.54,-78.61
8969,21556,"PINTO",MD,39.54,-78.89
8970,21557,"RAWLINGS",MD,39.53,-78.88
8971,21560,"SPRING GAP",MD,39.59,-78.69
8972,21561,"SWANTON",MD,39.47,-79.21
8973,21562,"WESTERNPORT",MD,39.48,-79.04
8974,21601,"EASTON",MD,38.77,-76.06
8975,21606,"EASTON",MD,38.77,-76.07
8976,21607,"BARCLAY",MD,39.14,-75.86
8977,21609,"BETHLEHEM",MD,38.74,-75.93
8978,21610,"BETTERTON",MD,39.36,-76.07
8979,21612,"BOZMAN",MD,38.75,-76.26
8980,21613,"CAMBRIDGE",MD,38.56,-76.07
8981,21617,"CENTREVILLE",MD,39.04,-76.06
8982,21619,"CHESTER",MD,38.95,-76.28
8983,21620,"CHESTERTOWN",MD,39.21,-76.07
8984,21622,"CHURCH CREEK",MD,38.5,-76.15
8985,21623,"CHURCH HILL",MD,39.14,-75.98
8986,21624,"CLAIBORNE",MD,38.82,-76.28
8987,21625,"CORDOVA",MD,38.87,-75.99
8988,21626,"CRAPO",MD,38.32,-76.12
8989,21627,"CROCHERON",MD,38.24,-76.05
8990,21628,"CRUMPTON",MD,39.23,-75.91
8991,21629,"DENTON",MD,38.88,-75.82
8992,21631,"EAST NEW MARKET",MD,38.59,-75.92
8993,21632,"FEDERALSBURG",MD,38.69,-75.77
8994,21634,"FISHING CREEK",MD,38.32,-76.23
8995,21635,"GALENA",MD,39.34,-75.87
8996,21636,"GOLDSBORO",MD,39.03,-75.78
8997,21638,"GRASONVILLE",MD,38.95,-76.19
8998,21639,"GREENSBORO",MD,38.97,-75.8
8999,21640,"HENDERSON",MD,39.07,-75.76
9000,21641,"HILLSBORO",MD,38.91,-75.94
9001,21643,"HURLOCK",MD,38.62,-75.87
9002,21644,"INGLESIDE",MD,39.12,-75.89
9003,21645,"KENNEDYVILLE",MD,39.3,-75.98
9004,21647,"MCDANIEL",MD,38.82,-76.28
9005,21648,"MADISON",MD,38.5,-76.22
9006,21649,"MARYDEL",MD,39.11,-75.74
9007,21650,"MASSEY",MD,39.31,-75.81
9008,21651,"MILLINGTON",MD,39.25,-75.84
9009,21652,"NEAVITT",MD,38.72,-76.28
9010,21653,"NEWCOMB",MD,38.75,-76.19
9011,21654,"OXFORD",MD,38.68,-76.17
9012,21655,"PRESTON",MD,38.71,-75.9
9013,21656,"PRICE",MD,39.14,-75.99
9014,21657,"QUEEN ANNE",MD,38.91,-75.95
9015,21658,"QUEENSTOWN",MD,38.98,-76.15
9016,21659,"RHODESDALE",MD,38.59,-75.79
9017,21660,"RIDGELY",MD,38.94,-75.88
9018,21661,"ROCK HALL",MD,39.14,-76.24
9019,21662,"ROYAL OAK",MD,38.74,-76.17
9020,21663,"SAINT MICHAELS",MD,38.78,-76.22
9021,21664,"SECRETARY",MD,38.6,-75.94
9022,21665,"SHERWOOD",MD,38.74,-76.32
9023,21666,"STEVENSVILLE",MD,38.99,-76.3
9024,21667,"STILL POND",MD,39.32,-76.05
9025,21668,"SUDLERSVILLE",MD,39.18,-75.85
9026,21669,"TAYLORS ISLAND",MD,38.46,-76.3
9027,21670,"TEMPLEVILLE",MD,39.13,-75.76
9028,21671,"TILGHMAN",MD,38.69,-76.33
9029,21672,"TODDVILLE",MD,38.27,-76.05
9030,21673,"TRAPPE",MD,38.65,-76.05
9031,21675,"WINGATE",MD,38.28,-76.08
9032,21676,"WITTMAN",MD,38.78,-76.3
9033,21677,"WOOLFORD",MD,38.5,-76.18
9034,21678,"WORTON",MD,39.29,-76.11
9035,21679,"WYE MILLS",MD,38.91,-76.08
9036,21681,"RIDGELY",MD,38.94,-75.88
9037,21682,"RIDGELY",MD,38.94,-75.88
9038,21683,"RIDGELY",MD,38.94,-75.88
9039,21684,"RIDGELY",MD,38.94,-75.88
9040,21685,"RIDGELY",MD,38.94,-75.88
9041,21686,"RIDGELY",MD,38.94,-75.88
9042,21687,"RIDGELY",MD,38.94,-75.88
9043,21688,"RIDGELY",MD,38.94,-75.88
9044,21690,"CHESTERTOWN",MD,39.21,-76.07
9045,21701,"FREDERICK",MD,39.42,-77.41
9046,21702,"FREDERICK",MD,39.42,-77.41
9047,21703,"FREDERICK",MD,39.42,-77.41
9048,21704,"FREDERICK",MD,39.42,-77.41
9049,21705,"FREDERICK",MD,39.42,-77.41
9050,21709,"FREDERICK",MD,39.42,-77.41
9051,21710,"ADAMSTOWN",MD,39.29,-77.45
9052,21711,"BIG POOL",MD,39.66,0
9053,21713,"BOONSBORO",MD,39.5,-77.65
9054,21714,"BRADDOCK HEIGHTS",MD,39.41,-77.5
9055,21715,"BROWNSVILLE",MD,39.38,-77.66
9056,21716,"BRUNSWICK",MD,39.31,-77.61
9057,21717,"BUCKEYSTOWN",MD,39.33,-77.43
9058,21718,"BURKITTSVILLE",MD,39.39,-77.62
9059,21719,"CASCADE",MD,39.7,-77.49
9060,21720,"CAVETOWN",MD,39.65,-77.57
9061,21721,"CHEWSVILLE",MD,39.63,-77.68
9062,21722,"CLEAR SPRING",MD,39.65,-77.93
9063,21723,"COOKSVILLE",MD,39.31,0
9064,21727,"EMMITSBURG",MD,39.7,-77.32
9065,21733,"FAIRPLAY",MD,39.53,-77.74
9066,21734,"FUNKSTOWN",MD,39.6,-77.7
9067,21737,"GLENELG",MD,39.26,-76.99
9068,21738,"GLENWOOD",MD,39.28,-77.02
9069,21740,"HAGERSTOWN",MD,39.63,-77.71
9070,21741,"HAGERSTOWN",MD,39.63,-77.71
9071,21742,"HAGERSTOWN",MD,39.63,-77.71
9072,21746,"HAGERSTOWN",MD,39.63,-77.71
9073,21747,"HAGERSTOWN",MD,39.63,-77.71
9074,21748,"HAGERSTOWN",MD,39.63,-77.71
9075,21749,"HAGERSTOWN",MD,39.63,-77.71
9076,21750,"HANCOCK",MD,39.7,-78.17
9077,21754,"IJAMSVILLE",MD,39.33,-77.31
9078,21755,"JEFFERSON",MD,39.36,-77.53
9079,21756,"KEEDYSVILLE",MD,39.48,-77.69
9080,21757,"KEYMAR",MD,39.59,-77.26
9081,21758,"KNOXVILLE",MD,39.35,-77.64
9082,21759,"LADIESBURG",MD,39.56,-77.26
9083,21762,"LIBERTYTOWN",MD,39.48,-77.24
9084,21765,"LISBON",MD,39.33,-77.07
9085,21766,"LITTLE ORLEANS",MD,39.62,-78.38
9086,21767,"MAUGANSVILLE",MD,39.69,-77.75
9087,21769,"MIDDLETOWN",MD,39.44,-77.54
9088,21770,"MONROVIA",MD,39.35,-77.25
9089,21771,"MOUNT AIRY",MD,39.37,-77.15
9090,21773,"MYERSVILLE",MD,39.5,-77.56
9091,21774,"NEW MARKET",MD,39.38,-77.27
9092,21775,"NEW MIDWAY",MD,39.55,-77.3
9093,21776,"NEW WINDSOR",MD,39.54,-77.1
9094,21777,"POINT OF ROCKS",MD,39.27,-77.53
9095,21778,"ROCKY RIDGE",MD,39.61,-77.33
9096,21779,"ROHRERSVILLE",MD,39.43,-77.65
9097,21780,"SABILLASVILLE",MD,39.7,-77.45
9098,21781,"SAINT JAMES",MD,39.57,-77.82
9099,21782,"SHARPSBURG",MD,39.45,-77.74
9100,21783,"SMITHSBURG",MD,39.65,-77.57
9101,21784,"SYKESVILLE",MD,39.37,-76.97
9102,21787,"TANEYTOWN",MD,39.65,-77.16
9103,21788,"THURMONT",MD,39.62,-77.4
9104,21790,"TUSCARORA",MD,39.26,-77.5
9105,21791,"UNION BRIDGE",MD,39.56,-77.17
9106,21792,"UNIONVILLE",MD,39.51,-77.11
9107,21793,"WALKERSVILLE",MD,39.48,-77.35
9108,21794,"WEST FRIENDSHIP",MD,39.3,-76.95
9109,21795,"WILLIAMSPORT",MD,39.59,-77.81
9110,21797,"WOODBINE",MD,39.33,-77.06
9111,21798,"WOODSBORO",MD,39.53,-77.31
9112,21801,"SALISBURY",MD,38.37,-75.58
9113,21802,"SALISBURY",MD,38.37,-75.58
9114,21803,"SALISBURY",MD,38.37,-75.58
9115,21804,"SALISBURY",MD,38.37,-75.58
9116,21810,"ALLEN",MD,38.28,-75.68
9117,21811,"BERLIN",MD,38.32,-75.21
9118,21813,"BISHOPVILLE",MD,38.44,-75.19
9119,21814,"BIVALVE",MD,38.3,-75.88
9120,21817,"CRISFIELD",MD,37.98,-75.85
9121,21821,"DEAL ISLAND",MD,38.15,-75.94
9122,21822,"EDEN",MD,38.28,-75.65
9123,21824,"EWELL",MD,37.98,-76.03
9124,21826,"FRUITLAND",MD,38.32,-75.62
9125,21829,"GIRDLETREE",MD,38.09,-75.39
9126,21830,"HEBRON",MD,38.41,-75.68
9127,21835,"LINKWOOD",MD,38.54,-75.94
9128,21836,"MANOKIN",MD,38.11,-75.75
9129,21837,"MARDELA SPRINGS",MD,38.45,-75.75
9130,21838,"MARION STATION",MD,38.01,-75.73
9131,21840,"NANTICOKE",MD,38.27,-75.9
9132,21841,"NEWARK",MD,38.25,-75.29
9133,21842,"OCEAN CITY",MD,38.33,-75.08
9134,21843,"OCEAN CITY",MD,38.33,-75.08
9135,21849,"PARSONSBURG",MD,38.38,-75.47
9136,21850,"PITTSVILLE",MD,38.39,-75.41
9137,21851,"POCOMOKE CITY",MD,38.06,-75.56
9138,21852,"POWELLVILLE",MD,38.32,-75.37
9139,21853,"PRINCESS ANNE",MD,38.2,-75.69
9140,21856,"QUANTICO",MD,38.32,-75.79
9141,21857,"REHOBETH",MD,38.03,-75.66
9142,21861,"SHARPTOWN",MD,38.53,-75.72
9143,21862,"SHOWELL",MD,38.39,-75.21
9144,21863,"SNOW HILL",MD,38.17,-75.39
9145,21864,"STOCKTON",MD,38.05,-75.4
9146,21865,"TYASKIN",MD,38.32,-75.87
9147,21866,"TYLERTON",MD,37.96,-76.01
9148,21867,"UPPER FAIRMOUNT",MD,38.1,-75.79
9149,21869,"VIENNA",MD,38.48,-75.82
9150,21871,"WESTOVER",MD,38.12,-75.7
9151,21872,"WHALEYVILLE",MD,38.4,-75.3
9152,21874,"WILLARDS",MD,38.39,-75.34
9153,21875,"DELMAR",MD,38.45,-75.57
9154,21890,"WESTOVER",MD,38.12,-75.7
9155,21901,"NORTH EAST",MD,39.6,-75.94
9156,21902,"PERRY POINT",MD,39.6,-75.95
9157,21903,"PERRYVILLE",MD,39.57,-76.06
9158,21904,"PORT DEPOSIT",MD,39.6,-76.11
9159,21911,"RISING SUN",MD,39.69,-76.06
9160,21912,"WARWICK",MD,39.42,-75.8
9161,21913,"CECILTON",MD,39.4,-75.86
9162,21914,"CHARLESTOWN",MD,39.57,-75.97
9163,21915,"CHESAPEAKE CITY",MD,39.52,-75.81
9164,21916,"CHILDS",MD,39.65,-75.85
9165,21917,"COLORA",MD,39.66,-76.09
9166,21918,"CONOWINGO",MD,39.68,-76.16
9167,21919,"EARLEVILLE",MD,39.41,-75.93
9168,21920,"ELK MILLS",MD,39.65,-75.85
9169,21921,"ELKTON",MD,39.6,-75.82
9170,21922,"ELKTON",MD,39.6,-75.82
9171,21930,"GEORGETOWN",MD,39.39,-75.87
